UNKNOWN                 
1 82073U          25303.00619488  .00002994  00000+0  76942-3 0  9993
2 82073  97.7561  23.2859 0209215  61.4478 300.7595 14.38529500568831
UNKNOWN                 
1 82139U          25300.40600360  .00003624  00000+0  18275-2 0  9991
2 82139  99.0265   7.7342 0084676 173.4951 186.7342 14.15091611473565
UNKNOWN                 
1 82162U          25300.74162291  .00004114  00000+0  61459-2 0  9997
2 82162 100.4771 222.6148 0065522 342.2825  17.6024 13.53092294498089
UNKNOWN                 
1 82180U          25300.06178646  .00029618  00000+0  38605-2 0  9996
2 82180  65.6558  60.1767 0331460 240.7339 116.0253 14.48806690594987
UNKNOWN                 
1 82189U          25302.24375420  .00000380  00000+0  14205-3 0  9992
2 82189  74.0325 129.9032 0016805 328.8066  31.2088 14.35160215626037
UNKNOWN                 
1 82199U          25301.18447330  .00000789  00000+0  67230-3 0  9994
2 82199  82.9642 268.1302 0036963 162.8077 218.1019 13.85704502603389
UNKNOWN                 
1 82205U          25303.60084364  .00004923  00000+0  14022-2 0  9999
2 82205  63.0121   7.8039 0494613 288.4355  66.3540 13.92799790601996
UNKNOWN                 
1 82223U          25301.40951089  .00002980  00000+0  16313-2 0  9998
2 82223  99.3191 185.6210 0068824 110.4348 250.4229 14.11518009442399
UNKNOWN                 
1 82250U          25301.70625250  .00004674  00000+0  24508-2 0  9996
2 82250  98.9048 207.3433 0073200 320.9961  67.4133 14.13330554610270
UNKNOWN                 
1 82272U          25302.68521949  .00000238  00000+0  88063-3 0  9997
2 82272  67.5241 280.5134 0753268 134.9252 231.5457 12.33494942266505
UNKNOWN                 
1 82295U          25287.32725221  .00001593  00000+0  58038-3 0  9998
2 82295  66.6195 304.4383 0131012 263.3779  95.2392 14.31090859571228
UNKNOWN                 
1 82303U          25303.02404315  .00040144  00000+0  35652-1 0  9992
2 82303  81.9073  40.8277 0074318 143.7600  32.1329 13.83250345508375
