CCSDS_OMM_VERS = 2.0
CREATION_DATE  = 
ORIGINATOR     = 

OBJECT_NAME    = UNKNOWN
OBJECT_ID      = 
CENTER_NAME    = EARTH
REF_FRAME      = TEME
TIME_SYSTEM    = UTC
MEAN_ELEMENT_THEORY = SGP/SGP4

EPOCH          = 2025-10-30T00:08:55.237632
MEAN_MOTION    = 14.38529500
ECCENTRICITY   = .0209215
INCLINATION    = 97.7561
RA_OF_ASC_NODE = 23.2859
ARG_OF_PERICENTER = 61.4478
MEAN_ANOMALY   = 300.7595

EPHEMERIS_TYPE = 0
CLASSIFICATION_TYPE = U
NORAD_CAT_ID   = 82073
ELEMENT_SET_NO = 999
REV_AT_EPOCH   = 56883
BSTAR          = .76942E-3
MEAN_MOTION_DOT = .2994E-4
MEAN_MOTION_DDOT = 0

CCSDS_OMM_VERS = 2.0
CREATION_DATE  = 
ORIGINATOR     = 

OBJECT_NAME    = UNKNOWN
OBJECT_ID      = 
CENTER_NAME    = EARTH
REF_FRAME      = TEME
TIME_SYSTEM    = UTC
MEAN_ELEMENT_THEORY = SGP/SGP4

EPOCH          = 2025-10-27T09:44:38.711040
MEAN_MOTION    = 14.15091611
ECCENTRICITY   = .0084676
INCLINATION    = 99.0265
RA_OF_ASC_NODE = 7.7342
ARG_OF_PERICENTER = 173.4951
MEAN_ANOMALY   = 186.7342

EPHEMERIS_TYPE = 0
CLASSIFICATION_TYPE = U
NORAD_CAT_ID   = 82139
ELEMENT_SET_NO = 999
REV_AT_EPOCH   = 47356
BSTAR          = .18275E-2
MEAN_MOTION_DOT = .3624E-4
MEAN_MOTION_DDOT = 0

CCSDS_OMM_VERS = 2.0
CREATION_DATE  = 
ORIGINATOR     = 

OBJECT_NAME    = UNKNOWN
OBJECT_ID      = 
CENTER_NAME    = EARTH
REF_FRAME      = TEME
TIME_SYSTEM    = UTC
MEAN_ELEMENT_THEORY = SGP/SGP4

EPOCH          = 2025-10-27T17:47:56.219424
MEAN_MOTION    = 13.53092294
ECCENTRICITY   = .0065522
INCLINATION    = 100.4771
RA_OF_ASC_NODE = 222.6148
ARG_OF_PERICENTER = 342.2825
MEAN_ANOMALY   = 17.6024

EPHEMERIS_TYPE = 0
CLASSIFICATION_TYPE = U
NORAD_CAT_ID   = 82162
ELEMENT_SET_NO = 999
REV_AT_EPOCH   = 49808
BSTAR          = .61459E-2
MEAN_MOTION_DOT = .4114E-4
MEAN_MOTION_DDOT = 0

CCSDS_OMM_VERS = 2.0
CREATION_DATE  = 
ORIGINATOR     = 

OBJECT_NAME    = UNKNOWN
OBJECT_ID      = 
CENTER_NAME    = EARTH
REF_FRAME      = TEME
TIME_SYSTEM    = UTC
MEAN_ELEMENT_THEORY = SGP/SGP4

EPOCH          = 2025-10-27T01:28:58.350144
MEAN_MOTION    = 14.48806690
ECCENTRICITY   = .033146
INCLINATION    = 65.6558
RA_OF_ASC_NODE = 60.1767
ARG_OF_PERICENTER = 240.7339
MEAN_ANOMALY   = 116.0253

EPHEMERIS_TYPE = 0
CLASSIFICATION_TYPE = U
NORAD_CAT_ID   = 82180
ELEMENT_SET_NO = 999
REV_AT_EPOCH   = 59498
BSTAR          = .38605E-2
MEAN_MOTION_DOT = .29618E-3
MEAN_MOTION_DDOT = 0

CCSDS_OMM_VERS = 2.0
CREATION_DATE  = 
ORIGINATOR     = 

OBJECT_NAME    = UNKNOWN
OBJECT_ID      = 
CENTER_NAME    = EARTH
REF_FRAME      = TEME
TIME_SYSTEM    = UTC
MEAN_ELEMENT_THEORY = SGP/SGP4

EPOCH          = 2025-10-29T05:51:00.362880
MEAN_MOTION    = 14.35160215
ECCENTRICITY   = .0016805
INCLINATION    = 74.0325
RA_OF_ASC_NODE = 129.9032
ARG_OF_PERICENTER = 328.8066
MEAN_ANOMALY   = 31.2088

EPHEMERIS_TYPE = 0
CLASSIFICATION_TYPE = U
NORAD_CAT_ID   = 82189
ELEMENT_SET_NO = 999
REV_AT_EPOCH   = 62603
BSTAR          = .14205E-3
MEAN_MOTION_DOT = .38E-5
MEAN_MOTION_DDOT = 0

CCSDS_OMM_VERS = 2.0
CREATION_DATE  = 
ORIGINATOR     = 

OBJECT_NAME    = UNKNOWN
OBJECT_ID      = 
CENTER_NAME    = EARTH
REF_FRAME      = TEME
TIME_SYSTEM    = UTC
MEAN_ELEMENT_THEORY = SGP/SGP4

EPOCH          = 2025-10-28T04:25:38.493120
MEAN_MOTION    = 13.85704502
ECCENTRICITY   = .0036963
INCLINATION    = 82.9642
RA_OF_ASC_NODE = 268.1302
ARG_OF_PERICENTER = 162.8077
MEAN_ANOMALY   = 218.1019

EPHEMERIS_TYPE = 0
CLASSIFICATION_TYPE = U
NORAD_CAT_ID   = 82199
ELEMENT_SET_NO = 999
REV_AT_EPOCH   = 60338
BSTAR          = .6723E-3
MEAN_MOTION_DOT = .789E-5
MEAN_MOTION_DDOT = 0

CCSDS_OMM_VERS = 2.0
CREATION_DATE  = 
ORIGINATOR     = 

OBJECT_NAME    = UNKNOWN
OBJECT_ID      = 
CENTER_NAME    = EARTH
REF_FRAME      = TEME
TIME_SYSTEM    = UTC
MEAN_ELEMENT_THEORY = SGP/SGP4

EPOCH          = 2025-10-30T14:25:12.890496
MEAN_MOTION    = 13.92799790
ECCENTRICITY   = .0494613
INCLINATION    = 63.0121
RA_OF_ASC_NODE = 7.8039
ARG_OF_PERICENTER = 288.4355
MEAN_ANOMALY   = 66.3540

EPHEMERIS_TYPE = 0
CLASSIFICATION_TYPE = U
NORAD_CAT_ID   = 82205
ELEMENT_SET_NO = 999
REV_AT_EPOCH   = 60199
BSTAR          = .14022E-2
MEAN_MOTION_DOT = .4923E-4
MEAN_MOTION_DDOT = 0

CCSDS_OMM_VERS = 2.0
CREATION_DATE  = 
ORIGINATOR     = 

OBJECT_NAME    = UNKNOWN
OBJECT_ID      = 
CENTER_NAME    = EARTH
REF_FRAME      = TEME
TIME_SYSTEM    = UTC
MEAN_ELEMENT_THEORY = SGP/SGP4

EPOCH          = 2025-10-28T09:49:41.740896
MEAN_MOTION    = 14.11518009
ECCENTRICITY   = .0068824
INCLINATION    = 99.3191
RA_OF_ASC_NODE = 185.6210
ARG_OF_PERICENTER = 110.4348
MEAN_ANOMALY   = 250.4229

EPHEMERIS_TYPE = 0
CLASSIFICATION_TYPE = U
NORAD_CAT_ID   = 82223
ELEMENT_SET_NO = 999
REV_AT_EPOCH   = 44239
BSTAR          = .16313E-2
MEAN_MOTION_DOT = .298E-4
MEAN_MOTION_DDOT = 0

CCSDS_OMM_VERS = 2.0
CREATION_DATE  = 
ORIGINATOR     = 

OBJECT_NAME    = UNKNOWN
OBJECT_ID      = 
CENTER_NAME    = EARTH
REF_FRAME      = TEME
TIME_SYSTEM    = UTC
MEAN_ELEMENT_THEORY = SGP/SGP4

EPOCH          = 2025-10-28T16:57:00.216000
MEAN_MOTION    = 14.13330554
ECCENTRICITY   = .00732
INCLINATION    = 98.9048
RA_OF_ASC_NODE = 207.3433
ARG_OF_PERICENTER = 320.9961
MEAN_ANOMALY   = 67.4133

EPHEMERIS_TYPE = 0
CLASSIFICATION_TYPE = U
NORAD_CAT_ID   = 82250
ELEMENT_SET_NO = 999
REV_AT_EPOCH   = 61027
BSTAR          = .24508E-2
MEAN_MOTION_DOT = .4674E-4
MEAN_MOTION_DDOT = 0

CCSDS_OMM_VERS = 2.0
CREATION_DATE  = 
ORIGINATOR     = 

OBJECT_NAME    = UNKNOWN
OBJECT_ID      = 
CENTER_NAME    = EARTH
REF_FRAME      = TEME
TIME_SYSTEM    = UTC
MEAN_ELEMENT_THEORY = SGP/SGP4

EPOCH          = 2025-10-29T16:26:42.963936
MEAN_MOTION    = 12.33494942
ECCENTRICITY   = .0753268
INCLINATION    = 67.5241
RA_OF_ASC_NODE = 280.5134
ARG_OF_PERICENTER = 134.9252
MEAN_ANOMALY   = 231.5457

EPHEMERIS_TYPE = 0
CLASSIFICATION_TYPE = U
NORAD_CAT_ID   = 82272
ELEMENT_SET_NO = 999
REV_AT_EPOCH   = 26650
BSTAR          = .88063E-3
MEAN_MOTION_DOT = .238E-5
MEAN_MOTION_DDOT = 0

CCSDS_OMM_VERS = 2.0
CREATION_DATE  = 
ORIGINATOR     = 

OBJECT_NAME    = UNKNOWN
OBJECT_ID      = 
CENTER_NAME    = EARTH
REF_FRAME      = TEME
TIME_SYSTEM    = UTC
MEAN_ELEMENT_THEORY = SGP/SGP4

EPOCH          = 2025-10-14T07:51:14.590944
MEAN_MOTION    = 14.31090859
ECCENTRICITY   = .0131012
INCLINATION    = 66.6195
RA_OF_ASC_NODE = 304.4383
ARG_OF_PERICENTER = 263.3779
MEAN_ANOMALY   = 95.2392

EPHEMERIS_TYPE = 0
CLASSIFICATION_TYPE = U
NORAD_CAT_ID   = 82295
ELEMENT_SET_NO = 999
REV_AT_EPOCH   = 57122
BSTAR          = .58038E-3
MEAN_MOTION_DOT = .1593E-4
MEAN_MOTION_DDOT = 0

CCSDS_OMM_VERS = 2.0
CREATION_DATE  = 
ORIGINATOR     = 

OBJECT_NAME    = UNKNOWN
OBJECT_ID      = 
CENTER_NAME    = EARTH
REF_FRAME      = TEME
TIME_SYSTEM    = UTC
MEAN_ELEMENT_THEORY = SGP/SGP4

EPOCH          = 2025-10-30T00:34:37.328160
MEAN_MOTION    = 13.83250345
ECCENTRICITY   = .0074318
INCLINATION    = 81.9073
RA_OF_ASC_NODE = 40.8277
ARG_OF_PERICENTER = 143.7600
MEAN_ANOMALY   = 32.1329

EPHEMERIS_TYPE = 0
CLASSIFICATION_TYPE = U
NORAD_CAT_ID   = 82303
ELEMENT_SET_NO = 999
REV_AT_EPOCH   = 50837
BSTAR          = .35652E-1
MEAN_MOTION_DOT = .40144E-3
MEAN_MOTION_DDOT = 0

